CCSDS_OMM_VERS = 2.0
CREATION_DATE  = 
ORIGINATOR     = 

OBJECT_NAME    = COSMOS 2058
OBJECT_ID      = 1990-010A
CENTER_NAME    = EARTH
REF_FRAME      = TEME
TIME_SYSTEM    = UTC
MEAN_ELEMENT_THEORY = SGP/SGP4

EPOCH          = 2026-03-11T19:59:33.395424
MEAN_MOTION    = 15.11343082
ECCENTRICITY   = .0009025
INCLINATION    = 82.4670
RA_OF_ASC_NODE = 45.3159
ARG_OF_PERICENTER = 337.5023
MEAN_ANOMALY   = 22.5810

EPHEMERIS_TYPE = 0
CLASSIFICATION_TYPE = U
NORAD_CAT_ID   = 20465
ELEMENT_SET_NO = 999
REV_AT_EPOCH   = 94256
BSTAR          = .26764E-3
MEAN_MOTION_DOT = .4543E-4
MEAN_MOTION_DDOT = 0

CCSDS_OMM_VERS = 2.0
CREATION_DATE  = 
ORIGINATOR     = 

OBJECT_NAME    = SL-14 R/B
OBJECT_ID      = 1990-010B
CENTER_NAME    = EARTH
REF_FRAME      = TEME
TIME_SYSTEM    = UTC
MEAN_ELEMENT_THEORY = SGP/SGP4

EPOCH          = 2026-03-11T18:39:56.766240
MEAN_MOTION    = 14.83570782
ECCENTRICITY   = .0018444
INCLINATION    = 82.4987
RA_OF_ASC_NODE = 265.4268
ARG_OF_PERICENTER = 294.9528
MEAN_ANOMALY   = 64.9770

EPHEMERIS_TYPE = 0
CLASSIFICATION_TYPE = U
NORAD_CAT_ID   = 20466
ELEMENT_SET_NO = 999
REV_AT_EPOCH   = 92879
BSTAR          = .56927E-4
MEAN_MOTION_DOT = .493E-5
MEAN_MOTION_DDOT = 0

CCSDS_OMM_VERS = 2.0
CREATION_DATE  = 
ORIGINATOR     = 

OBJECT_NAME    = SL-14 R/B
OBJECT_ID      = 1990-018B
CENTER_NAME    = EARTH
REF_FRAME      = TEME
TIME_SYSTEM    = UTC
MEAN_ELEMENT_THEORY = SGP/SGP4

EPOCH          = 2026-03-11T20:45:44.998560
MEAN_MOTION    = 14.82147386
ECCENTRICITY   = .0017654
INCLINATION    = 82.5207
RA_OF_ASC_NODE = 221.0560
ARG_OF_PERICENTER = 85.4792
MEAN_ANOMALY   = 274.8438

EPHEMERIS_TYPE = 0
CLASSIFICATION_TYPE = U
NORAD_CAT_ID   = 20511
ELEMENT_SET_NO = 999
REV_AT_EPOCH   = 92290
BSTAR          = .70923E-4
MEAN_MOTION_DOT = .59E-5
MEAN_MOTION_DDOT = 0

CCSDS_OMM_VERS = 2.0
CREATION_DATE  = 
ORIGINATOR     = 

OBJECT_NAME    = HST
OBJECT_ID      = 1990-037B
CENTER_NAME    = EARTH
REF_FRAME      = TEME
TIME_SYSTEM    = UTC
MEAN_ELEMENT_THEORY = SGP/SGP4

EPOCH          = 2026-03-11T05:56:45.946464
MEAN_MOTION    = 15.29511346
ECCENTRICITY   = .0001841
INCLINATION    = 28.4722
RA_OF_ASC_NODE = 29.3700
ARG_OF_PERICENTER = 140.8013
MEAN_ANOMALY   = 219.2716

EPHEMERIS_TYPE = 0
CLASSIFICATION_TYPE = U
NORAD_CAT_ID   = 20580
ELEMENT_SET_NO = 999
REV_AT_EPOCH   = 77355
BSTAR          = .29286E-3
MEAN_MOTION_DOT = .8856E-4
MEAN_MOTION_DDOT = 0

CCSDS_OMM_VERS = 2.0
CREATION_DATE  = 
ORIGINATOR     = 

OBJECT_NAME    = SL-16 R/B
OBJECT_ID      = 1990-046B
CENTER_NAME    = EARTH
REF_FRAME      = TEME
TIME_SYSTEM    = UTC
MEAN_ELEMENT_THEORY = SGP/SGP4

EPOCH          = 2026-03-11T19:37:50.458368
MEAN_MOTION    = 14.15011690
ECCENTRICITY   = .0016215
INCLINATION    = 70.9983
RA_OF_ASC_NODE = 293.4449
ARG_OF_PERICENTER = 296.7590
MEAN_ANOMALY   = 63.1873

EPHEMERIS_TYPE = 0
CLASSIFICATION_TYPE = U
NORAD_CAT_ID   = 20625
ELEMENT_SET_NO = 999
REV_AT_EPOCH   = 84869
BSTAR          = -.72637E-4
MEAN_MOTION_DOT = -.189E-5
MEAN_MOTION_DDOT = 0

CCSDS_OMM_VERS = 2.0
CREATION_DATE  = 
ORIGINATOR     = 

OBJECT_NAME    = COSMOS 2084
OBJECT_ID      = 1990-055A
CENTER_NAME    = EARTH
REF_FRAME      = TEME
TIME_SYSTEM    = UTC
MEAN_ELEMENT_THEORY = SGP/SGP4

EPOCH          = 2026-03-11T20:19:59.154816
MEAN_MOTION    = 15.05665442
ECCENTRICITY   = .0016759
INCLINATION    = 62.7919
RA_OF_ASC_NODE = 328.2199
ARG_OF_PERICENTER = 190.6010
MEAN_ANOMALY   = 169.4740

EPHEMERIS_TYPE = 0
CLASSIFICATION_TYPE = U
NORAD_CAT_ID   = 20663
ELEMENT_SET_NO = 999
REV_AT_EPOCH   = 93664
BSTAR          = .19077E-3
MEAN_MOTION_DOT = .2574E-4
MEAN_MOTION_DDOT = 0

CCSDS_OMM_VERS = 2.0
CREATION_DATE  = 
ORIGINATOR     = 

OBJECT_NAME    = SL-6 R/B(2)
OBJECT_ID      = 1990-055D
CENTER_NAME    = EARTH
REF_FRAME      = TEME
TIME_SYSTEM    = UTC
MEAN_ELEMENT_THEORY = SGP/SGP4

EPOCH          = 2026-03-11T19:59:14.397792
MEAN_MOTION    = 15.03605998
ECCENTRICITY   = .0025148
INCLINATION    = 62.7825
RA_OF_ASC_NODE = 246.5622
ARG_OF_PERICENTER = 347.5462
MEAN_ANOMALY   = 12.5013

EPHEMERIS_TYPE = 0
CLASSIFICATION_TYPE = U
NORAD_CAT_ID   = 20666
ELEMENT_SET_NO = 999
REV_AT_EPOCH   = 93851
BSTAR          = .18335E-3
MEAN_MOTION_DOT = .2334E-4
MEAN_MOTION_DDOT = 0

CCSDS_OMM_VERS = 2.0
CREATION_DATE  = 
ORIGINATOR     = 

OBJECT_NAME    = SL-8 R/B
OBJECT_ID      = 1990-078B
CENTER_NAME    = EARTH
REF_FRAME      = TEME
TIME_SYSTEM    = UTC
MEAN_ELEMENT_THEORY = SGP/SGP4

EPOCH          = 2026-03-11T20:38:42.979488
MEAN_MOTION    = 14.89141367
ECCENTRICITY   = .0361763
INCLINATION    = 82.9006
RA_OF_ASC_NODE = 249.3584
ARG_OF_PERICENTER = 6.6999
MEAN_ANOMALY   = 353.8864

EPHEMERIS_TYPE = 0
CLASSIFICATION_TYPE = U
NORAD_CAT_ID   = 20775
ELEMENT_SET_NO = 999
REV_AT_EPOCH   = 80962
BSTAR          = .48311E-3
MEAN_MOTION_DOT = .164E-3
MEAN_MOTION_DDOT = 0

CCSDS_OMM_VERS = 2.0
CREATION_DATE  = 
ORIGINATOR     = 

OBJECT_NAME    = SL-8 R/B
OBJECT_ID      = 1991-006B
CENTER_NAME    = EARTH
REF_FRAME      = TEME
TIME_SYSTEM    = UTC
MEAN_ELEMENT_THEORY = SGP/SGP4

EPOCH          = 2026-03-11T17:46:33.955392
MEAN_MOTION    = 13.77494568
ECCENTRICITY   = .0022957
INCLINATION    = 82.9465
RA_OF_ASC_NODE = 168.5212
ARG_OF_PERICENTER = 32.7248
MEAN_ANOMALY   = 77.3402

EPHEMERIS_TYPE = 0
CLASSIFICATION_TYPE = U
NORAD_CAT_ID   = 21088
ELEMENT_SET_NO = 999
REV_AT_EPOCH   = 76435
BSTAR          = .65719E-4
MEAN_MOTION_DOT = .81E-6
MEAN_MOTION_DDOT = 0

CCSDS_OMM_VERS = 2.0
CREATION_DATE  = 
ORIGINATOR     = 

OBJECT_NAME    = OKEAN-3
OBJECT_ID      = 1991-039A
CENTER_NAME    = EARTH
REF_FRAME      = TEME
TIME_SYSTEM    = UTC
MEAN_ELEMENT_THEORY = SGP/SGP4

EPOCH          = 2026-03-11T19:21:52.678080
MEAN_MOTION    = 15.04824060
ECCENTRICITY   = .0013754
INCLINATION    = 82.5195
RA_OF_ASC_NODE = 334.7924
ARG_OF_PERICENTER = 329.9550
MEAN_ANOMALY   = 30.0886

EPHEMERIS_TYPE = 0
CLASSIFICATION_TYPE = U
NORAD_CAT_ID   = 21397
ELEMENT_SET_NO = 999
REV_AT_EPOCH   = 86535
BSTAR          = .2993E-3
MEAN_MOTION_DOT = .4261E-4
MEAN_MOTION_DDOT = 0

CCSDS_OMM_VERS = 2.0
CREATION_DATE  = 
ORIGINATOR     = 

OBJECT_NAME    = COSMOS 2151
OBJECT_ID      = 1991-042A
CENTER_NAME    = EARTH
REF_FRAME      = TEME
TIME_SYSTEM    = UTC
MEAN_ELEMENT_THEORY = SGP/SGP4

EPOCH          = 2026-03-11T19:37:43.140288
MEAN_MOTION    = 15.00112448
ECCENTRICITY   = .0013932
INCLINATION    = 82.4930
RA_OF_ASC_NODE = 81.6227
ARG_OF_PERICENTER = 57.3576
MEAN_ANOMALY   = 302.8990

EPHEMERIS_TYPE = 0
CLASSIFICATION_TYPE = U
NORAD_CAT_ID   = 21422
ELEMENT_SET_NO = 999
REV_AT_EPOCH   = 86351
BSTAR          = .15595E-3
MEAN_MOTION_DOT = .1975E-4
MEAN_MOTION_DDOT = 0

CCSDS_OMM_VERS = 2.0
CREATION_DATE  = 
ORIGINATOR     = 

OBJECT_NAME    = SL-14 R/B
OBJECT_ID      = 1991-042B
CENTER_NAME    = EARTH
REF_FRAME      = TEME
TIME_SYSTEM    = UTC
MEAN_ELEMENT_THEORY = SGP/SGP4

EPOCH          = 2026-03-11T20:25:29.867232
MEAN_MOTION    = 14.81832048
ECCENTRICITY   = .0015903
INCLINATION    = 82.4929
RA_OF_ASC_NODE = 218.1556
ARG_OF_PERICENTER = 231.0138
MEAN_ANOMALY   = 128.9660

EPHEMERIS_TYPE = 0
CLASSIFICATION_TYPE = U
NORAD_CAT_ID   = 21423
ELEMENT_SET_NO = 999
REV_AT_EPOCH   = 85339
BSTAR          = .70855E-4
MEAN_MOTION_DOT = .584E-5
MEAN_MOTION_DDOT = 0

